OBJECT_NAME,OBJECT_ID,EPOCH,MEAN_MOTION,ECCENTRICITY,INCLINATION,RA_OF_ASC_NODE,ARG_OF_PERICENTER,MEAN_ANOMALY,EPHEMERIS_TYPE,CLASSIFICATION_TYPE,NORAD_CAT_ID,ELEMENT_SET_NO,REV_AT_EPOCH,BSTAR,MEAN_MOTION_DOT,MEAN_MOTION_DDOT
ONEWEB-0422,2022-012E,2026-06-04T02:10:14.672640,13.17650008,.0001404,87.9147,8.4625,66.7619,293.3660,0,U,51626,999,21208,.91147E-4,.48E-6,0
ONEWEB-0423,2022-012F,2026-06-04T02:00:32.367744,13.17649252,.0001943,87.9144,8.4705,80.5755,279.5596,0,U,51627,999,21197,.53143E-4,.34E-6,0
ONEWEB-0425,2022-012G,2026-06-04T15:52:21.994752,13.10374955,.0002181,87.8841,38.7616,84.4921,275.6455,0,U,51628,999,20768,.19089E-2,.679E-5,0
ONEWEB-0428,2022-012H,2026-06-04T15:23:38.154048,13.10377827,.0001726,87.8861,38.7750,80.4385,279.6937,0,U,51629,999,20764,-.23417E-3,-.69E-6,0
ONEWEB-0431,2022-012J,2026-06-04T05:30:38.290176,13.10370123,.0001267,87.8841,38.8470,90.4606,269.6667,0,U,51630,999,20764,-.8985E-3,-.301E-5,0
ONEWEB-0434,2022-012K,2026-06-04T15:57:19.793088,13.10374149,.0002472,87.8843,38.7856,80.8376,279.3031,0,U,51631,999,20768,.1919E-2,.683E-5,0
ONEWEB-0435,2022-012L,2026-06-04T16:09:01.437120,13.10396385,.0001459,87.8845,38.7720,72.8481,287.2806,0,U,51632,999,20767,.9073E-2,.3182E-4,0
ONEWEB-0436,2022-012M,2026-06-04T03:37:42.785760,13.17650175,.000162,87.9153,8.4381,84.8415,275.2901,0,U,51633,999,21196,.303E-4,.25E-6,0
ONEWEB-0438,2022-012N,2026-06-04T15:45:10.578816,13.10376084,.0001856,87.8864,38.7780,78.8270,281.3066,0,U,51634,999,20770,.13848E-2,.496E-5,0
ONEWEB-0439,2022-012P,2026-06-04T15:49:57.375840,13.10375722,.0001843,87.8848,38.7626,80.1331,280.0004,0,U,51635,999,20768,.1979E-2,.704E-5,0
ONEWEB-0442,2022-012Q,2026-06-04T03:26:47.179968,13.17648552,.0002382,87.9145,8.4731,88.4085,271.7319,0,U,51636,999,21195,-.44321E-4,-.4E-7,0
ONEWEB-0443,2022-012R,2026-06-04T02:05:22.503264,13.17648493,.0001982,87.9141,8.4857,75.4222,284.7129,0,U,51637,999,21199,.43124E-4,.3E-6,0
ONEWEB-0444,2022-012S,2026-06-04T15:35:36.507840,13.10377023,.000178,87.8868,38.7656,72.8324,287.2998,0,U,51638,999,20769,.63982E-3,.236E-5,0
ONEWEB-0445,2022-012T,2026-06-04T16:06:41.423328,13.10371252,.0001739,87.8848,38.7472,90.6945,269.4382,0,U,51639,999,20770,.15896E-2,.568E-5,0
ONEWEB-0446,2022-012U,2026-06-04T15:33:12.392640,13.10378199,.0001778,87.8852,38.7805,85.9059,274.2271,0,U,51640,999,20768,.64855E-3,.239E-5,0
ONEWEB-0448,2022-012V,2026-06-04T15:40:23.968416,13.10375870,.0001834,87.8845,38.7767,79.8249,280.3085,0,U,51641,999,20765,.1341E-2,.481E-5,0
ONEWEB-0449,2022-012W,2026-06-04T15:47:34.116000,13.10375933,.0002264,87.8850,38.7593,80.3877,279.7506,0,U,51642,999,20766,.17312E-2,.617E-5,0
ONEWEB-0451,2022-012X,2026-06-04T03:32:52.325376,13.17649764,.0002089,87.9154,8.4357,85.5252,274.6118,0,U,51643,999,21194,-.10874E-3,-.29E-6,0
ONEWEB-0452,2022-012Y,2026-06-04T03:30:25.611264,13.17650629,.0002027,87.9144,8.4739,77.4400,282.6958,0,U,51644,999,21195,.31218E-4,.25E-6,0
ONEWEB-0456,2022-012AA,2026-06-04T16:01:52.824000,13.10377917,.0001652,87.8851,38.7453,79.9572,280.1742,0,U,51646,999,20770,.18859E-2,.671E-5,0
ONEWEB-0457,2022-012AB,2026-06-04T15:28:12.862848,13.10374291,.0001931,87.8852,38.7686,91.3343,268.8006,0,U,51647,999,20770,-.23007E-3,-.68E-6,0
ONEWEB-0458,2022-012AC,2026-06-04T15:59:34.122624,13.10383484,.0002031,87.8864,38.7489,74.9655,285.1697,0,U,51648,999,20766,.67361E-2,.2365E-4,0
ONEWEB-0461,2022-012AD,2026-06-04T14:58:05.494080,13.17649167,.0001899,87.9150,8.3561,91.7024,268.4325,0,U,51649,999,21223,-.56322E-3,-.206E-5,0
ONEWEB-0463,2022-012AE,2026-06-04T03:35:17.766816,13.17650417,.0001913,87.9143,8.4735,92.7529,267.3821,0,U,51650,999,21195,-.2668E-3,-.91E-6,0
ONEWEB-0464,2022-012AF,2026-06-04T15:54:44.432928,13.10374440,.0001728,87.8842,38.7749,72.0276,288.1040,0,U,51651,999,20768,.19731E-2,.701E-5,0
ONEWEB-0468,2022-012AG,2026-06-04T16:04:18.020928,13.10372034,.000169,87.8838,38.7682,72.2353,287.8958,0,U,51652,999,20766,.17237E-2,.614E-5,0
ONEWEB-0473,2022-012AH,2026-06-04T15:42:46.848096,13.10376771,.0001847,87.8848,38.7723,80.2043,279.9293,0,U,51653,999,20766,.15555E-2,.556E-5,0
ONEWEB-0474,2022-012AJ,2026-06-04T15:30:48.845952,13.10378117,.0001796,87.8858,38.7572,72.8407,287.2917,0,U,51654,999,20765,.37568E-3,.144E-5,0
ONEWEB-0475,2022-012AK,2026-06-04T03:52:18.056640,13.17650340,.0001948,87.9139,8.4638,62.4282,297.7047,0,U,51655,999,21197,.32201E-4,.25E-6,0
ONEWEB-0490,2022-138A,2026-06-03T11:42:04.796064,13.19726669,.00015846,87.9171,307.6968,93.3842,266.7472,0,U,54113,999,17502,-.24944077E-3,-.87E-6,0
ONEWEB-0492,2022-138B,2026-06-03T23:13:33.089376,13.19717786,.00016244,87.9160,307.6033,99.5746,260.5570,0,U,54114,999,17509,-.198417E-2,-.781E-5,0
