ONEWEB-0422             
1 51626U 22012E   26155.09044760  .00000048  00000+0  91147-4 0  9993
2 51626  87.9147   8.4625 0001404  66.7619 293.3660 13.17650008212080
ONEWEB-0423             
1 51627U 22012F   26155.08370796  .00000034  00000+0  53143-4 0  9993
2 51627  87.9144   8.4705 0001943  80.5755 279.5596 13.17649252211970
ONEWEB-0425             
1 51628U 22012G   26155.66136568  .00000679  00000+0  19089-2 0  9999
2 51628  87.8841  38.7616 0002181  84.4921 275.6455 13.10374955207686
ONEWEB-0428             
1 51629U 22012H   26155.64141382 -.00000069  00000+0 -23417-3 0  9994
2 51629  87.8861  38.7750 0001726  80.4385 279.6937 13.10377827207648
ONEWEB-0431             
1 51630U 22012J   26155.22960984 -.00000301  00000+0 -89850-3 0  9999
2 51630  87.8841  38.8470 0001267  90.4606 269.6667 13.10370123207646
ONEWEB-0434             
1 51631U 22012K   26155.66481242  .00000683  00000+0  19190-2 0  9993
2 51631  87.8843  38.7856 0002472  80.8376 279.3031 13.10374149207681
ONEWEB-0435             
1 51632U 22012L   26155.67293330  .00003182  00000+0  90730-2 0  9990
2 51632  87.8845  38.7720 0001459  72.8481 287.2806 13.10396385207679
ONEWEB-0436             
1 51633U 22012M   26155.15118965  .00000025  00000+0  30300-4 0  9996
2 51633  87.9153   8.4381 0001620  84.8415 275.2901 13.17650175211967
ONEWEB-0438             
1 51634U 22012N   26155.65637244  .00000496  00000+0  13848-2 0  9996
2 51634  87.8864  38.7780 0001856  78.8270 281.3066 13.10376084207702
ONEWEB-0439             
1 51635U 22012P   26155.65969185  .00000704  00000+0  19790-2 0  9993
2 51635  87.8848  38.7626 0001843  80.1331 280.0004 13.10375722207687
ONEWEB-0442             
1 51636U 22012Q   26155.14360162 -.00000004  00000+0 -44321-4 0  9993
2 51636  87.9145   8.4731 0002382  88.4085 271.7319 13.17648552211958
ONEWEB-0443             
1 51637U 22012R   26155.08706601  .00000030  00000+0  43124-4 0  9996
2 51637  87.9141   8.4857 0001982  75.4222 284.7129 13.17648493211999
ONEWEB-0444             
1 51638U 22012S   26155.64972810  .00000236  00000+0  63982-3 0  9997
2 51638  87.8868  38.7656 0001780  72.8324 287.2998 13.10377023207693
ONEWEB-0445             
1 51639U 22012T   26155.67131277  .00000568  00000+0  15896-2 0  9993
2 51639  87.8848  38.7472 0001739  90.6945 269.4382 13.10371252207708
ONEWEB-0446             
1 51640U 22012U   26155.64806010  .00000239  00000+0  64855-3 0  9991
2 51640  87.8852  38.7805 0001778  85.9059 274.2271 13.10378199207686
ONEWEB-0448             
1 51641U 22012V   26155.65305519  .00000481  00000+0  13410-2 0  9990
2 51641  87.8845  38.7767 0001834  79.8249 280.3085 13.10375870207653
ONEWEB-0449             
1 51642U 22012W   26155.65803375  .00000617  00000+0  17312-2 0  9990
2 51642  87.8850  38.7593 0002264  80.3877 279.7506 13.10375933207660
ONEWEB-0451             
1 51643U 22012X   26155.14782784 -.00000029  00000+0 -10874-3 0  9991
2 51643  87.9154   8.4357 0002089  85.5252 274.6118 13.17649764211942
ONEWEB-0452             
1 51644U 22012Y   26155.14612976  .00000025  00000+0  31218-4 0  9997
2 51644  87.9144   8.4739 0002027  77.4400 282.6958 13.17650629211957
ONEWEB-0456             
1 51646U 22012AA  26155.66797250  .00000671  00000+0  18859-2 0  9996
2 51646  87.8851  38.7453 0001652  79.9572 280.1742 13.10377917207703
ONEWEB-0457             
1 51647U 22012AB  26155.64459332 -.00000068  00000+0 -23007-3 0  9995
2 51647  87.8852  38.7686 0001931  91.3343 268.8006 13.10374291207705
ONEWEB-0458             
1 51648U 22012AC  26155.66636716  .00002365  00000+0  67361-2 0  9991
2 51648  87.8864  38.7489 0002031  74.9655 285.1697 13.10383484207662
ONEWEB-0461             
1 51649U 22012AD  26155.62367470 -.00000206  00000+0 -56322-3 0  9996
2 51649  87.9150   8.3561 0001899  91.7024 268.4325 13.17649167212235
ONEWEB-0463             
1 51650U 22012AE  26155.14951119 -.00000091  00000+0 -26680-3 0  9990
2 51650  87.9143   8.4735 0001913  92.7529 267.3821 13.17650417211958
ONEWEB-0464             
1 51651U 22012AF  26155.66301427  .00000701  00000+0  19731-2 0  9993
2 51651  87.8842  38.7749 0001728  72.0276 288.1040 13.10374440207680
ONEWEB-0468             
1 51652U 22012AG  26155.66965302  .00000614  00000+0  17237-2 0  9994
2 51652  87.8838  38.7682 0001690  72.2353 287.8958 13.10372034207667
ONEWEB-0473             
1 51653U 22012AH  26155.65470889  .00000556  00000+0  15555-2 0  9991
2 51653  87.8848  38.7723 0001847  80.2043 279.9293 13.10376771207660
ONEWEB-0474             
1 51654U 22012AJ  26155.64639868  .00000144  00000+0  37568-3 0  9997
2 51654  87.8858  38.7572 0001796  72.8407 287.2917 13.10378117207658
ONEWEB-0475             
1 51655U 22012AK  26155.16132010  .00000025  00000+0  32201-4 0  9990
2 51655  87.9139   8.4638 0001948  62.4282 297.7047 13.17650340211972
ONEWEB-0490             
1 54113U 22138A   26154.48755551 -.00000087  00000+0 -24944-3 0  9990
2 54113  87.9171 307.6968 0001584  93.3842 266.7472 13.19726669175024
ONEWEB-0492             
1 54114U 22138B   26154.96774409 -.00000781  00000+0 -19842-2 0  9998
2 54114  87.9160 307.6033 0001624  99.5746 260.5570 13.19717786175090
